*******************************************************************************
Ephemeris / WWW_USER Mon Mar 24 07:05:47 2025 Pasadena, USA      / Horizons    
*******************************************************************************
Target body name: 358P/PANSTARRS                  {source: JPL#33}
Center body name: Earth (399)                     {source: DE441}
Center-site name: Mauna Kea
*******************************************************************************
Start time      : A.D. 2019-Jan-22 04:17:00.0000 UT      
Stop  time      : A.D. 2019-Jan-22 16:49:00.0000 UT      
Step-size       : 1 minutes
*******************************************************************************
Target pole/equ : undefined
Target radii    : undefined                                                    
Center geodetic : 204.5278, 19.8260847, 4.21024   {E-lon(deg),Lat(deg),Alt(km)}
Center cylindric: 204.5278, 6006.35451, 2151.0229 {E-lon(deg),Dxy(km),Dz(km)}
Center pole/equ : ITRF93                          {East-longitude positive}
Center radii    : 6378.137, 6378.137, 6356.752 km {Equator_a, b, pole_c}       
Target primary  : Sun
Vis. interferer : MOON (R_eq= 1737.400) km        {source: DE441}
Rel. light bend : Sun                             {source: DE441}
Rel. lght bnd GM: 1.3271E+11 km^3/s^2                                          
Small-body perts: Yes                             {source: SB441-N16}
Atmos refraction: NO (AIRLESS)
RA format       : HMS
Time format     : CAL 
Calendar mode   : Mixed Julian/Gregorian
RTS-only print  : NO       
EOP file        : eop.250321.p250617                                           
EOP coverage    : DATA-BASED 1962-JAN-20 TO 2025-MAR-21. PREDICTS-> 2025-JUN-16
Units conversion: 1 au= 149597870.700 km, c= 299792.458 km/s, 1 day= 86400.0 s 
Table cut-offs 1: Elevation (-90.0deg=NO ),Airmass (>38.000=NO), Daylight (YES)
Table cut-offs 2: Solar elongation (  0.0,180.0=NO ),Local Hour Angle( 0.0=NO )
Table cut-offs 3: RA/DEC angular rate (     0.0=NO )                           
*******************************************************************************
Initial IAU76/J2000 heliocentric ecliptic osculating elements (au, days, deg.):
  EPOCH=  2459793.5 ! 2022-Aug-02.0000000 (TDB)    RMSW= n.a.                  
   EC= .2388922136090974   QR= 2.394903345037887   TP= 2460259.6862889272      
   OM= 85.70246509974154   W= 299.7728624007243    IN= 11.06025031481611       
  Equivalent ICRF heliocentric cartesian coordinates (au, au/d):
   X= 3.243054425204740E-01  Y=-2.897679241187805E+00  Z=-1.376383147061824E+00
  VX= 8.746409534656921E-03 VY= 3.598394346577952E-03 VZ=-2.469697424538527E-04
Comet physical (GM= km^3/s^2; RAD= km):                                        
   GM= n.a.                RAD= n.a.                                           
   M1=  7.8      M2=  17.2     k1=  30.    k2=  5.      PHCOF=  .030           
Comet non-gravitational force model (AMRAT=m^2/kg;A1-A3=au/d^2;DT=days;R0=au): 
   AMRAT=  0.                                      DT=  0.                     
   A1= 0.                  A2= -2.303385920823E-10 A3= 0.                      
 Standard model:                                                               
   ALN=  .1112620426   NK=  4.6142   NM=  2.15     NN=  5.093    R0=  2.808    
*******************************************************************************
 Date__(UT)__HR:MN     R.A._________(ICRF)_________DEC
******************************************************
$$SOE
 2019-Jan-22 04:17 C   06 00 15.209727 +27 39 05.98320
 2019-Jan-22 04:18 C   06 00 15.184749 +27 39 06.09428
 2019-Jan-22 04:19 C   06 00 15.159766 +27 39 06.20533
 2019-Jan-22 04:20 C   06 00 15.134778 +27 39 06.31637
 2019-Jan-22 04:21 C   06 00 15.109786 +27 39 06.42738
 2019-Jan-22 04:22 C   06 00 15.084789 +27 39 06.53837
 2019-Jan-22 04:23 C   06 00 15.059787 +27 39 06.64933
 2019-Jan-22 04:24 C   06 00 15.034781 +27 39 06.76028
 2019-Jan-22 04:25 C   06 00 15.009771 +27 39 06.87120
 2019-Jan-22 04:26 C   06 00 14.984756 +27 39 06.98210
 2019-Jan-22 04:27 C   06 00 14.959736 +27 39 07.09298
 2019-Jan-22 04:28 C   06 00 14.934712 +27 39 07.20384
 2019-Jan-22 04:29 C   06 00 14.909683 +27 39 07.31467
 2019-Jan-22 04:30 C   06 00 14.884650 +27 39 07.42548
 2019-Jan-22 04:31 N   06 00 14.859613 +27 39 07.53627
 2019-Jan-22 04:32 N   06 00 14.834570 +27 39 07.64703
 2019-Jan-22 04:33 N   06 00 14.809524 +27 39 07.75777
 2019-Jan-22 04:34 N   06 00 14.784473 +27 39 07.86849
 2019-Jan-22 04:35 N   06 00 14.759418 +27 39 07.97919
 2019-Jan-22 04:36 N   06 00 14.734358 +27 39 08.08986
 2019-Jan-22 04:37 N   06 00 14.709294 +27 39 08.20050
 2019-Jan-22 04:38 N   06 00 14.684225 +27 39 08.31113
 2019-Jan-22 04:39 N   06 00 14.659152 +27 39 08.42173
 2019-Jan-22 04:40 N   06 00 14.634075 +27 39 08.53230
 2019-Jan-22 04:41 N   06 00 14.608994 +27 39 08.64285
 2019-Jan-22 04:42 N   06 00 14.583908 +27 39 08.75338
 2019-Jan-22 04:43 N   06 00 14.558818 +27 39 08.86388
 2019-Jan-22 04:44 N   06 00 14.533723 +27 39 08.97436
 2019-Jan-22 04:45 N   06 00 14.508625 +27 39 09.08481
 2019-Jan-22 04:46 N   06 00 14.483522 +27 39 09.19523
 2019-Jan-22 04:47 N   06 00 14.458415 +27 39 09.30564
 2019-Jan-22 04:48 N   06 00 14.433304 +27 39 09.41601
 2019-Jan-22 04:49 N   06 00 14.408188 +27 39 09.52636
 2019-Jan-22 04:50 N   06 00 14.383068 +27 39 09.63669
 2019-Jan-22 04:51 N   06 00 14.357945 +27 39 09.74699
 2019-Jan-22 04:52 N   06 00 14.332817 +27 39 09.85726
 2019-Jan-22 04:53 N   06 00 14.307685 +27 39 09.96751
 2019-Jan-22 04:54 N   06 00 14.282549 +27 39 10.07773
 2019-Jan-22 04:55 N   06 00 14.257408 +27 39 10.18793
 2019-Jan-22 04:56 N   06 00 14.232264 +27 39 10.29810
 2019-Jan-22 04:57 N   06 00 14.207116 +27 39 10.40824
 2019-Jan-22 04:58 Am  06 00 14.181963 +27 39 10.51836
 2019-Jan-22 04:59 Am  06 00 14.156807 +27 39 10.62845
 2019-Jan-22 05:00 Am  06 00 14.131646 +27 39 10.73851
 2019-Jan-22 05:01 Am  06 00 14.106482 +27 39 10.84855
 2019-Jan-22 05:02 Am  06 00 14.081314 +27 39 10.95856
 2019-Jan-22 05:03 Am  06 00 14.056141 +27 39 11.06854
 2019-Jan-22 05:04 Am  06 00 14.030965 +27 39 11.17849
 2019-Jan-22 05:05 Am  06 00 14.005785 +27 39 11.28842
 2019-Jan-22 05:06 Am  06 00 13.980601 +27 39 11.39832
 2019-Jan-22 05:07 Am  06 00 13.955413 +27 39 11.50819
 2019-Jan-22 05:08 Am  06 00 13.930221 +27 39 11.61803
 2019-Jan-22 05:09 Am  06 00 13.905025 +27 39 11.72785
 2019-Jan-22 05:10 Am  06 00 13.879826 +27 39 11.83764
 2019-Jan-22 05:11 Am  06 00 13.854623 +27 39 11.94740
 2019-Jan-22 05:12 Am  06 00 13.829416 +27 39 12.05713
 2019-Jan-22 05:13 Am  06 00 13.804205 +27 39 12.16683
 2019-Jan-22 05:14 Am  06 00 13.778990 +27 39 12.27650
 2019-Jan-22 05:15 Am  06 00 13.753772 +27 39 12.38615
 2019-Jan-22 05:16 Am  06 00 13.728550 +27 39 12.49576
 2019-Jan-22 05:17 Am  06 00 13.703325 +27 39 12.60535
 2019-Jan-22 05:18 Am  06 00 13.678095 +27 39 12.71491
 2019-Jan-22 05:19 Am  06 00 13.652862 +27 39 12.82444
 2019-Jan-22 05:20 Am  06 00 13.627626 +27 39 12.93394
 2019-Jan-22 05:21 Am  06 00 13.602385 +27 39 13.04341
 2019-Jan-22 05:22 Am  06 00 13.577142 +27 39 13.15285
 2019-Jan-22 05:23 Am  06 00 13.551894 +27 39 13.26226
 2019-Jan-22 05:24 Am  06 00 13.526643 +27 39 13.37164
 2019-Jan-22 05:25  m  06 00 13.501389 +27 39 13.48100
 2019-Jan-22 05:26  m  06 00 13.476131 +27 39 13.59032
 2019-Jan-22 05:27  m  06 00 13.450869 +27 39 13.69961
 2019-Jan-22 05:28  m  06 00 13.425605 +27 39 13.80887
 2019-Jan-22 05:29  m  06 00 13.400336 +27 39 13.91810
 2019-Jan-22 05:30  m  06 00 13.375064 +27 39 14.02730
 2019-Jan-22 05:31  m  06 00 13.349789 +27 39 14.13647
 2019-Jan-22 05:32  m  06 00 13.324511 +27 39 14.24561
 2019-Jan-22 05:33  m  06 00 13.299229 +27 39 14.35472
 2019-Jan-22 05:34  m  06 00 13.273943 +27 39 14.46380
 2019-Jan-22 05:35  m  06 00 13.248655 +27 39 14.57285
 2019-Jan-22 05:36  m  06 00 13.223363 +27 39 14.68186
 2019-Jan-22 05:37  m  06 00 13.198067 +27 39 14.79085
 2019-Jan-22 05:38  m  06 00 13.172769 +27 39 14.89980
 2019-Jan-22 05:39  m  06 00 13.147467 +27 39 15.00872
 2019-Jan-22 05:40  m  06 00 13.122162 +27 39 15.11761
 2019-Jan-22 05:41  m  06 00 13.096854 +27 39 15.22647
 2019-Jan-22 05:42  m  06 00 13.071542 +27 39 15.33530
 2019-Jan-22 05:43  m  06 00 13.046228 +27 39 15.44409
 2019-Jan-22 05:44  m  06 00 13.020910 +27 39 15.55286
 2019-Jan-22 05:45  m  06 00 12.995589 +27 39 15.66159
 2019-Jan-22 05:46  m  06 00 12.970265 +27 39 15.77029
 2019-Jan-22 05:47  m  06 00 12.944938 +27 39 15.87895
 2019-Jan-22 05:48  m  06 00 12.919608 +27 39 15.98759
 2019-Jan-22 05:49  m  06 00 12.894275 +27 39 16.09619
 2019-Jan-22 05:50  m  06 00 12.868939 +27 39 16.20476
 2019-Jan-22 05:51  m  06 00 12.843600 +27 39 16.31329
 2019-Jan-22 05:52  m  06 00 12.818258 +27 39 16.42180
 2019-Jan-22 05:53  m  06 00 12.792913 +27 39 16.53027
 2019-Jan-22 05:54  m  06 00 12.767565 +27 39 16.63871
 2019-Jan-22 05:55  m  06 00 12.742214 +27 39 16.74711
 2019-Jan-22 05:56  m  06 00 12.716861 +27 39 16.85548
 2019-Jan-22 05:57  m  06 00 12.691504 +27 39 16.96382
 2019-Jan-22 05:58  m  06 00 12.666145 +27 39 17.07213
 2019-Jan-22 05:59  m  06 00 12.640783 +27 39 17.18040
 2019-Jan-22 06:00  m  06 00 12.615418 +27 39 17.28864
 2019-Jan-22 06:01  m  06 00 12.590050 +27 39 17.39684
 2019-Jan-22 06:02  m  06 00 12.564679 +27 39 17.50501
 2019-Jan-22 06:03  m  06 00 12.539306 +27 39 17.61315
 2019-Jan-22 06:04  m  06 00 12.513930 +27 39 17.72125
 2019-Jan-22 06:05  m  06 00 12.488552 +27 39 17.82932
 2019-Jan-22 06:06  m  06 00 12.463170 +27 39 17.93735
 2019-Jan-22 06:07  m  06 00 12.437786 +27 39 18.04535
 2019-Jan-22 06:08  m  06 00 12.412400 +27 39 18.15332
 2019-Jan-22 06:09  m  06 00 12.387011 +27 39 18.26125
 2019-Jan-22 06:10  m  06 00 12.361619 +27 39 18.36915
 2019-Jan-22 06:11  m  06 00 12.336225 +27 39 18.47701
 2019-Jan-22 06:12  m  06 00 12.310828 +27 39 18.58484
 2019-Jan-22 06:13  m  06 00 12.285429 +27 39 18.69263
